ONEWEB-0578             
1 56067U 23043X   24258.86336079 -.00000177  00000+0 -45917-3 0  9994
2 56067  87.9358  11.4676 0001876  95.0219 265.1129 13.21824803 74558
ONEWEB-0579             
1 56068U 23043Y   24258.85387836 -.00000038  00000+0 -12242-3 0  9992
2 56068  87.9354  11.4640 0001725 113.8104 246.3211 13.21828282 73659
ONEWEB-0581             
1 56069U 23043Z   24258.79988920  .00000689  00000+0  17691-2 0  9999
2 56069  87.9169 356.3282 0001302 102.0323 258.0954 13.16588840 74697
ONEWEB-0609             
1 56070U 23043AA  24258.85710302 -.00000145  00000+0 -41841-3 0  9999
2 56070  87.9090  26.6394 0001846 101.4887 258.6451 13.15543797 72242
ONEWEB-0613             
1 56071U 23043AB  24258.85236232 -.00000118  00000+0 -34666-3 0  9992
2 56071  87.9095  26.6399 0001735 110.3203 249.8113 13.15550314 72241
ONEWEB-0630             
1 56072U 23043AC  24258.84759231 -.00000381  00000+0 -10454-2 0  9991
2 56072  87.9091  26.6287 0001880 111.4002 248.7329 13.15549205 72237
ONEWEB-0632             
1 56073U 23043AD  24258.84284682 -.00000207  00000+0 -58406-3 0  9992
2 56073  87.9094  26.6486 0001416 101.7091 258.4198 13.15544613 72237
ONEWEB-0633             
1 56074U 23043AE  24258.83650450 -.00000043  00000+0 -14871-3 0  9998
2 56074  87.9090  26.6275 0002160 113.8832 246.2525 13.15545432 72211
